{
    "links": {
        "self": "http://www.neowsapp.com/rest/v1/neo/3803884?api_key=iIulBulltgU6a56xZRHN4H3l9WmuAYTsLGpBGhQ2"
    },
    "id": "3803884",
    "neo_reference_id": "3803884",
    "name": "(2018 GG5)",
    "designation": "2018 GG5",
    "nasa_jpl_url": "http://ssd.jpl.nasa.gov/sbdb.cgi?sstr=3803884",
    "absolute_magnitude_h": 19.8,
    "estimated_diameter": {
        "kilometers": {
            "estimated_diameter_min": 0.2914439045,
            "estimated_diameter_max": 0.6516883822
        },
        "meters": {
            "estimated_diameter_min": 291.4439045349,
            "estimated_diameter_max": 651.6883821679
        },
        "miles": {
            "estimated_diameter_min": 0.1810947904,
            "estimated_diameter_max": 0.4049402617
        },
        "feet": {
            "estimated_diameter_min": 956.1808197541,
            "estimated_diameter_max": 2138.0853117517
        }
    },
    "is_potentially_hazardous_asteroid": false,
    "close_approach_data": [
        {
            "close_approach_date": "2018-04-27",
            "close_approach_date_full": "2018-Apr-27 14:53",
            "epoch_date_close_approach": 1524840780000,
            "relative_velocity": {
                "kilometers_per_second": "28.1191177835",
                "kilometers_per_hour": "101228.8240207361",
                "miles_per_hour": "62899.6545699957"
            },
            "miss_distance": {
                "astronomical": "0.3850859591",
                "lunar": "149.7984380899",
                "kilometers": "57608039.248267117",
                "miles": "35795975.7074235346"
            },
            "orbiting_body": "Earth"
        },
        {
            "close_approach_date": "2024-02-17",
            "close_approach_date_full": "2024-Feb-17 05:23",
            "epoch_date_close_approach": 1708147380000,
            "relative_velocity": {
                "kilometers_per_second": "44.0528310057",
                "kilometers_per_hour": "158590.1916205063",
                "miles_per_hour": "98541.7776766418"
            },
            "miss_distance": {
                "astronomical": "0.2878151595",
                "lunar": "111.9600970455",
                "kilometers": "43056534.814910265",
                "miles": "26754090.130341057"
            },
            "orbiting_body": "Earth"
        }
    ],
    "orbital_data": {
        "orbit_id": "8",
        "orbit_determination_date": "2018-05-08 06:19:42",
        "first_observation_date": "2018-04-14",
        "last_observation_date": "2018-05-08",
        "data_arc_in_days": 24,
        "observations_used": 75,
        "orbit_uncertainty": "7",
        "minimum_orbit_intersection": ".105086",
        "jupiter_tisserand_invariant": "3.007",
        "epoch_osculation": "2459000.5",
        "eccentricity": ".944725538994819",
        "semi_major_axis": "1.986773679697302",
        "inclination": "16.75703281245683",
        "ascending_node_longitude": "3.679944805224418",
        "orbital_period": "1022.871371930105",
        "perihelion_distance": ".1098178442845484",
        "perihelion_argument": "347.7314021181791",
        "aphelion_distance": "3.863729515110055",
        "perihelion_time": "2459304.649144813422",
        "mean_anomaly": "252.9545834035583",
        "mean_motion": ".3519504112434967",
        "equinox": "J2000",
        "orbit_class": {
            "orbit_class_type": "APO",
            "orbit_class_description": "Near-Earth asteroid orbits which cross the Earth’s orbit similar to that of 1862 Apollo",
            "orbit_class_range": "a (semi-major axis) > 1.0 AU; q (perihelion) < 1.017 AU"
        }
    },
    "is_sentry_object": false
}